QIANFAN-81              
1 63167U 25046J   25326.49190327  .00000103  00000+0  14014-3 0  9999
2 63167  88.9752 321.9697 0014768 172.1626 187.9758 13.50996668 44750
QIANFAN-82              
1 63168U 25046K   25326.59964509  .00000073  00000+0  94190-4 0  9992
2 63168  88.9752 322.0023 0012666 178.7032 181.4154 13.50976531 44750
QIANFAN-83              
1 63169U 25046L   25326.56887651  .00000057  00000+0  57335-4 0  9994
2 63169  88.9752 321.8215 0014395 165.8267 194.3298 13.61969747 44855
QIANFAN-84              
1 63170U 25046M   25326.55354757 -.00000023  00000+0 -54185-4 0  9996
2 63170  88.9749 322.1401 0015709 176.9402 183.1848 13.50985841 44676
QIANFAN-85              
1 63171U 25046N   25326.55016648  .00000099  00000+0  13518-3 0  9996
2 63171  88.9751 322.0120 0013036 177.9599 182.1608 13.50981438 44745
QIANFAN-86              
1 63172U 25046P   25326.55848801  .00000087  00000+0  11584-3 0  9999
2 63172  88.9753 321.8728 0010789 180.6584 179.4555 13.50978203 44821
QIANFAN-87              
1 63173U 25046Q   25326.52977098  .00000020  00000+0  12186-4 0  9995
2 63173  88.9749 321.9883 0011608 176.3596 183.7642 13.50971031 44755
QIANFAN-88              
1 63174U 25046R   25326.54618582  .00000078  00000+0  10230-3 0  9998
2 63174  88.9752 321.9407 0011737 184.6744 175.4300 13.50975826 44780
